{"type": "FeatureCollection", "features": [ {"type": "Feature", "properties": {"norad_id": 43107, "name": "BEIDOU-3 M7 (C27)", "group": "gnss", "lat": 53.75786103945188, "lon": 51.84699253460034, "alt_km": 21514.53513372284, "timestamp": "2025-12-19T14:48:36.490512+00:00", "meta": {"OBJECT_NAME": "BEIDOU-3 M7 (C27)", "OBJECT_ID": "2018-003A", "EPOCH": "2025-12-18T09:32:16.089216", "MEAN_MOTION": 1.86232527, "ECCENTRICITY": 0.00028894, "INCLINATION": 54.4914, "RA_OF_ASC_NODE": 308.6174, "ARG_OF_PERICENTER": 69.2572, "MEAN_ANOMALY": 290.7611, "EPHEMERIS_TYPE": 0, "CLASSIFICATION_TYPE": "U", "NORAD_CAT_ID": 43107, "ELEMENT_SET_NO": 999, "REV_AT_EPOCH": 5398, "BSTAR": 0, "MEAN_MOTION_DOT": -8.5e-07, "MEAN_MOTION_DDOT": 0}, "tle": {"line1": "1 43107U 18003A   25352.39740844 -.00000085  00000+0  00000+0 0  9995", "line2": "2 43107  54.4914 308.6174 0002889  69.2572 290.7611  1.86232527 53988"}}, "geometry": {"type": "Point", "coordinates": [51.84699253460034, 53.75786103945188]}}, {"type": "Feature", "properties": {"norad_id": 43108, "name": "BEIDOU-3 M8 (C28)", "group": "gnss", "lat": 35.42335453819681, "lon": 98.03366049769186, "alt_km": 21533.957890029902, "timestamp": "2025-12-19T14:48:36.490524+00:00", "meta": {"OBJECT_NAME": "BEIDOU-3 M8 (C28)", "OBJECT_ID": "2018-003B", "EPOCH": "2025-12-17T06:26:34.084320", "MEAN_MOTION": 1.8623095, "ECCENTRICITY": 0.00046498, "INCLINATION": 54.4854, "RA_OF_ASC_NODE": 308.6394, "ARG_OF_PERICENTER": 276.4476, "MEAN_ANOMALY": 83.4857, "EPHEMERIS_TYPE": 0, "CLASSIFICATION_TYPE": "U", "NORAD_CAT_ID": 43108, "ELEMENT_SET_NO": 999, "REV_AT_EPOCH": 5397, "BSTAR": 0, "MEAN_MOTION_DOT": -9.2e-07, "MEAN_MOTION_DDOT": 0}, "tle": {"line1": "1 43108U 18003B   25351.26845005 -.00000092  00000+0  00000+0 0  9994", "line2": "2 43108  54.4854 308.6394 0004649 276.4476  83.4857  1.86230950 53973"}}, "geometry": {"type": "Point", "coordinates": [98.03366049769186, 35.42335453819681]}}, {"type": "Feature", "properties": {"norad_id": 43207, "name": "BEIDOU-3 M4 (C22)", "group": "gnss", "lat": -15.224926996296423, "lon": -100.53564840195361, "alt_km": 21541.62056706321, "timestamp": "2025-12-19T14:48:36.490535+00:00", "meta": {"OBJECT_NAME": "BEIDOU-3 M4 (C22)", "OBJECT_ID": "2018-018A", "EPOCH": "2025-12-18T05:56:14.155584", "MEAN_MOTION": 1.86231297, "ECCENTRICITY": 0.0004163, "INCLINATION": 56.4903, "RA_OF_ASC_NODE": 69.1221, "ARG_OF_PERICENTER": 6.0826, "MEAN_ANOMALY": 353.9513, "EPHEMERIS_TYPE": 0, "CLASSIFICATION_TYPE": "U", "NORAD_CAT_ID": 43207, "ELEMENT_SET_NO": 999, "REV_AT_EPOCH": 5337, "BSTAR": 0, "MEAN_MOTION_DOT": -6.5e-07, "MEAN_MOTION_DDOT": 0}, "tle": {"line1": "1 43207U 18018A   25352.24738606 -.00000065  00000+0  00000+0 0  9997", "line2": "2 43207  56.4903  69.1221 0004163   6.0826 353.9513  1.86231297 53378"}}, "geometry": {"type": "Point", "coordinates": [-100.53564840195361, -15.224926996296423]}}, {"type": "Feature", "properties": {"norad_id": 43208, "name": "BEIDOU-3 M3 (C21)", "group": "gnss", "lat": 21.69858398147245, "lon": -126.16473691366218, "alt_km": 21543.445221655522, "timestamp": "2025-12-19T14:48:36.490546+00:00", "meta": {"OBJECT_NAME": "BEIDOU-3 M3 (C21)", "OBJECT_ID": "2018-018B", "EPOCH": "2025-12-18T07:32:00.641184", "MEAN_MOTION": 1.86231501, "ECCENTRICITY": 0.00068177, "INCLINATION": 56.4898, "RA_OF_ASC_NODE": 69.124, "ARG_OF_PERICENTER": 315.0049, "MEAN_ANOMALY": 44.9692, "EPHEMERIS_TYPE": 0, "CLASSIFICATION_TYPE": "U", "NORAD_CAT_ID": 43208, "ELEMENT_SET_NO": 999, "REV_AT_EPOCH": 5337, "BSTAR": 0, "MEAN_MOTION_DOT": -6.4e-07, "MEAN_MOTION_DDOT": 0}, "tle": {"line1": "1 43208U 18018B   25352.31389631 -.00000064  00000+0  00000+0 0  9995", "line2": "2 43208  56.4898  69.1240 0006817 315.0049  44.9692  1.86231501 53374"}}, "geometry": {"type": "Point", "coordinates": [-126.16473691366218, 21.69858398147245]}}, {"type": "Feature", "properties": {"norad_id": 43245, "name": "BEIDOU-3 M9 (C29)", "group": "gnss", "lat": 7.09704129696802, "lon": -48.67657049785602, "alt_km": 21526.95135561671, "timestamp": "2025-12-19T14:48:36.490557+00:00", "meta": {"OBJECT_NAME": "BEIDOU-3 M9 (C29)", "OBJECT_ID": "2018-029A", "EPOCH": "2025-12-17T23:50:09.526848", "MEAN_MOTION": 1.86228477, "ECCENTRICITY": 0.00015623, "INCLINATION": 54.3607, "RA_OF_ASC_NODE": 306.2844, "ARG_OF_PERICENTER": 287.552, "MEAN_ANOMALY": 72.4185, "EPHEMERIS_TYPE": 0, "CLASSIFICATION_TYPE": "U", "NORAD_CAT_ID": 43245, "ELEMENT_SET_NO": 999, "REV_AT_EPOCH": 5252, "BSTAR": 0, "MEAN_MOTION_DOT": -8.6e-07, "MEAN_MOTION_DDOT": 0}, "tle": {"line1": "1 43245U 18029A   25351.99316582 -.00000086  00000+0  00000+0 0  9990", "line2": "2 43245  54.3607 306.2844 0001562 287.5520  72.4185  1.86228477 52521"}}, "geometry": {"type": "Point", "coordinates": [-48.67657049785602, 7.09704129696802]}}, {"type": "Feature", "properties": {"norad_id": 43246, "name": "BEIDOU-3 M10 (C30)", "group": "gnss", "lat": 39.966255666863944, "lon": -16.843580110318847, "alt_km": 21515.64169051438, "timestamp": "2025-12-19T14:48:36.490568+00:00", "meta": {"OBJECT_NAME": "BEIDOU-3 M10 (C30)", "OBJECT_ID": "2018-029B", "EPOCH": "2025-12-17T09:23:40.675200", "MEAN_MOTION": 1.8622912, "ECCENTRICITY": 0.00041993, "INCLINATION": 54.3586, "RA_OF_ASC_NODE": 306.3321, "ARG_OF_PERICENTER": 3.5987, "MEAN_ANOMALY": 356.3911, "EPHEMERIS_TYPE": 0, "CLASSIFICATION_TYPE": "U", "NORAD_CAT_ID": 43246, "ELEMENT_SET_NO": 999, "REV_AT_EPOCH": 5249, "BSTAR": 0, "MEAN_MOTION_DOT": -9e-07, "MEAN_MOTION_DDOT": 0}, "tle": {"line1": "1 43246U 18029B   25351.39144300 -.00000090  00000+0  00000+0 0  9997", "line2": "2 43246  54.3586 306.3321 0004199   3.5987 356.3911  1.86229120 52494"}}, "geometry": {"type": "Point", "coordinates": [-16.843580110318847, 39.966255666863944]}}, {"type": "Feature", "properties": {"norad_id": 43286, "name": "IRNSS-1I", "group": "gnss", "lat": -27.48389348389662, "lon": 8.389000852981829, "alt_km": 35814.420808326904, "timestamp": "2025-12-19T14:48:36.490582+00:00", "meta": {"OBJECT_NAME": "IRNSS-1I", "OBJECT_ID": "2018-035A", "EPOCH": "2025-12-14T19:56:38.641056", "MEAN_MOTION": 1.00272129, "ECCENTRICITY": 0.00217173, "INCLINATION": 29.1546, "RA_OF_ASC_NODE": 77.0653, "ARG_OF_PERICENTER": 182.6132, "MEAN_ANOMALY": 178.227, "EPHEMERIS_TYPE": 0, "CLASSIFICATION_TYPE": "U", "NORAD_CAT_ID": 43286, "ELEMENT_SET_NO": 999, "REV_AT_EPOCH": 2823, "BSTAR": 0, "MEAN_MOTION_DOT": 8.4e-07, "MEAN_MOTION_DDOT": 0}, "tle": {"line1": "1 43286U 18035A   25348.83100279  .00000084  00000+0  00000+0 0  9992", "line2": "2 43286  29.1546  77.0653 0021717 182.6132 178.2270  1.00272129 28237"}}, "geometry": {"type": "Point", "coordinates": [8.389000852981829, -27.48389348389662]}}, {"type": "Feature", "properties": {"norad_id": 43508, "name": "COSMOS 2527 (756)", "group": "gnss", "lat": -17.223605841687625, "lon": -91.96612907196459, "alt_km": 19112.591418532615, "timestamp": "2025-12-19T14:48:36.490596+00:00", "meta": {"OBJECT_NAME": "COSMOS 2527 (756)", "OBJECT_ID": "2018-053A", "EPOCH": "2025-12-18T10:03:29.975616", "MEAN_MOTION": 2.13102295, "ECCENTRICITY": 0.00088359, "INCLINATION": 65.4756, "RA_OF_ASC_NODE": 79.9416, "ARG_OF_PERICENTER": 226.669, "MEAN_ANOMALY": 133.2786, "EPHEMERIS_TYPE": 0, "CLASSIFICATION_TYPE": "U", "NORAD_CAT_ID": 43508, "ELEMENT_SET_NO": 999, "REV_AT_EPOCH": 5842, "BSTAR": 0, "MEAN_MOTION_DOT": -3.8e-07, "MEAN_MOTION_DDOT": 0}, "tle": {"line1": "1 43508U 18053A   25352.41909694 -.00000038  00000+0  00000+0 0  9996", "line2": "2 43508  65.4756  79.9416 0008835 226.6690 133.2786  2.13102295 58420"}}, "geometry": {"type": "Point", "coordinates": [-91.96612907196459, -17.223605841687625]}}, {"type": "Feature", "properties": {"norad_id": 43539, "name": "BEIDOU-2 IGSO-7 (C16)", "group": "gnss", "lat": -53.02976843360299, "lon": 52.463668304301656, "alt_km": 35433.21002132594, "timestamp": "2025-12-19T14:48:36.490608+00:00", "meta": {"OBJECT_NAME": "BEIDOU-2 IGSO-7 (C16)", "OBJECT_ID": "2018-057A", "EPOCH": "2025-12-15T07:47:07.120608", "MEAN_MOTION": 1.00256546, "ECCENTRICITY": 0.00926218, "INCLINATION": 55.1766, "RA_OF_ASC_NODE": 164.6485, "ARG_OF_PERICENTER": 235.2644, "MEAN_ANOMALY": 271.8458, "EPHEMERIS_TYPE": 0, "CLASSIFICATION_TYPE": "U", "NORAD_CAT_ID": 43539, "ELEMENT_SET_NO": 999, "REV_AT_EPOCH": 2728, "BSTAR": 0, "MEAN_MOTION_DOT": -2.3e-07, "MEAN_MOTION_DDOT": 0}, "tle": {"line1": "1 43539U 18057A   25349.32438797 -.00000023  00000+0  00000+0 0  9995", "line2": "2 43539  55.1766 164.6485 0092621 235.2644 271.8458  1.00256546 27289"}}, "geometry": {"type": "Point", "coordinates": [52.463668304301656, -53.02976843360299]}}, {"type": "Feature", "properties": {"norad_id": 43564, "name": "GSAT0221 (GALILEO 25)", "group": "gnss", "lat": 24.083312504704875, "lon": 3.3629006303409814, "alt_km": 23223.894548646404, "timestamp": "2025-12-19T14:48:36.490623+00:00", "meta": {"OBJECT_NAME": "GSAT0221 (GALILEO 25)", "OBJECT_ID": "2018-060A", "EPOCH": "2025-12-17T19:26:26.344896", "MEAN_MOTION": 1.7047594, "ECCENTRICITY": 0.00067192, "INCLINATION": 57.2267, "RA_OF_ASC_NODE": 346.6806, "ARG_OF_PERICENTER": 285.1372, "MEAN_ANOMALY": 74.8036, "EPHEMERIS_TYPE": 0, "CLASSIFICATION_TYPE": "U", "NORAD_CAT_ID": 43564, "ELEMENT_SET_NO": 999, "REV_AT_EPOCH": 4607, "BSTAR": 0, "MEAN_MOTION_DOT": -7.7e-07, "MEAN_MOTION_DDOT": 0}, "tle": {"line1": "1 43564U 18060A   25351.81002714 -.00000077  00000+0  00000+0 0  9999", "line2": "2 43564  57.2267 346.6806 0006719 285.1372  74.8036  1.70475940 46079"}}, "geometry": {"type": "Point", "coordinates": [3.3629006303409814, 24.083312504704875]}}]}